{"type": "FeatureCollection", "features": [ {"type": "Feature", "properties": {"norad_id": 34375, "name": "IRIDIUM 33 DEB", "group": "iridium-33-debris", "lat": -54.46684392063608, "lon": 178.5965404987693, "alt_km": 912.8297824877418, "timestamp": "2025-12-10T11:33:53.769310+00:00", "meta": {"OBJECT_NAME": "IRIDIUM 33 DEB", "OBJECT_ID": "1997-051FT", "EPOCH": "2025-12-10T00:40:51.061728", "MEAN_MOTION": 14.17984283, "ECCENTRICITY": 0.010311, "INCLINATION": 86.4325, "RA_OF_ASC_NODE": 183.7907, "ARG_OF_PERICENTER": 135.2462, "MEAN_ANOMALY": 16.4536, "EPHEMERIS_TYPE": 0, "CLASSIFICATION_TYPE": "U", "NORAD_CAT_ID": 34375, "ELEMENT_SET_NO": 999, "REV_AT_EPOCH": 86673, "BSTAR": 0.00056995, "MEAN_MOTION_DOT": 1.248e-05, "MEAN_MOTION_DDOT": 0}, "tle": {"line1": "1 34375U 97051FT  25344.02836877  .00001248  00000+0  56995-3 0  9994", "line2": "2 34375  86.4325 183.7907 0103110 135.2462  16.4536 14.17984283866738"}}, "geometry": {"type": "Point", "coordinates": [178.5965404987693, -54.46684392063608]}}, {"type": "Feature", "properties": {"norad_id": 34376, "name": "IRIDIUM 33 DEB", "group": "iridium-33-debris", "lat": -43.78077240570795, "lon": 3.998098382031338, "alt_km": 706.7868338198159, "timestamp": "2025-12-10T11:33:53.769320+00:00", "meta": {"OBJECT_NAME": "IRIDIUM 33 DEB", "OBJECT_ID": "1997-051FU", "EPOCH": "2025-12-10T01:54:49.641408", "MEAN_MOTION": 14.62505409, "ECCENTRICITY": 0.0026885, "INCLINATION": 86.2988, "RA_OF_ASC_NODE": 7.7353, "ARG_OF_PERICENTER": 175.5963, "MEAN_ANOMALY": 184.549, "EPHEMERIS_TYPE": 0, "CLASSIFICATION_TYPE": "U", "NORAD_CAT_ID": 34376, "ELEMENT_SET_NO": 999, "REV_AT_EPOCH": 87968, "BSTAR": 0.0020749, "MEAN_MOTION_DOT": 0.00010599, "MEAN_MOTION_DDOT": 0}, "tle": {"line1": "1 34376U 97051FU  25344.07974122  .00010599  00000+0  20749-2 0  9992", "line2": "2 34376  86.2988   7.7353 0026885 175.5963 184.5490 14.62505409879681"}}, "geometry": {"type": "Point", "coordinates": [3.998098382031338, -43.78077240570795]}}, {"type": "Feature", "properties": {"norad_id": 34486, "name": "IRIDIUM 33 DEB", "group": "iridium-33-debris", "lat": -82.50981249876521, "lon": -138.2669468973095, "alt_km": 595.4124044529299, "timestamp": "2025-12-10T11:33:53.769331+00:00", "meta": {"OBJECT_NAME": "IRIDIUM 33 DEB", "OBJECT_ID": "1997-051GB", "EPOCH": "2025-12-10T02:36:03.422016", "MEAN_MOTION": 14.95601936, "ECCENTRICITY": 0.0013453, "INCLINATION": 86.3935, "RA_OF_ASC_NODE": 13.2388, "ARG_OF_PERICENTER": 121.1387, "MEAN_ANOMALY": 292.5305, "EPHEMERIS_TYPE": 0, "CLASSIFICATION_TYPE": "U", "NORAD_CAT_ID": 34486, "ELEMENT_SET_NO": 999, "REV_AT_EPOCH": 88947, "BSTAR": 0.0030256, "MEAN_MOTION_DOT": 0.00033786, "MEAN_MOTION_DDOT": 0}, "tle": {"line1": "1 34486U 97051GB  25344.10837294  .00033786  00000+0  30256-2 0  9993", "line2": "2 34486  86.3935  13.2388 0013453 121.1387 292.5305 14.95601936889471"}}, "geometry": {"type": "Point", "coordinates": [-138.2669468973095, -82.50981249876521]}}, {"type": "Feature", "properties": {"norad_id": 34487, "name": "IRIDIUM 33 DEB", "group": "iridium-33-debris", "lat": -15.437744675976878, "lon": 12.337668714788839, "alt_km": 772.9788969331248, "timestamp": "2025-12-10T11:33:53.769341+00:00", "meta": {"OBJECT_NAME": "IRIDIUM 33 DEB", "OBJECT_ID": "1997-051GC", "EPOCH": "2025-12-10T01:47:16.386144", "MEAN_MOTION": 14.4321077, "ECCENTRICITY": 0.0032563, "INCLINATION": 86.3436, "RA_OF_ASC_NODE": 13.5248, "ARG_OF_PERICENTER": 136.7627, "MEAN_ANOMALY": 252.8644, "EPHEMERIS_TYPE": 0, "CLASSIFICATION_TYPE": "U", "NORAD_CAT_ID": 34487, "ELEMENT_SET_NO": 999, "REV_AT_EPOCH": 88210, "BSTAR": 0.00027422, "MEAN_MOTION_DOT": 9.48e-06, "MEAN_MOTION_DDOT": 0}, "tle": {"line1": "1 34487U 97051GC  25344.07449521  .00000948  00000+0  27422-3 0  9998", "line2": "2 34487  86.3436  13.5248 0032563 136.7627 252.8644 14.43210770882101"}}, "geometry": {"type": "Point", "coordinates": [12.337668714788839, -15.437744675976878]}}, {"type": "Feature", "properties": {"norad_id": 34488, "name": "IRIDIUM 33 DEB", "group": "iridium-33-debris", "lat": -23.59267611133648, "lon": -54.67804416744885, "alt_km": 483.7058572462656, "timestamp": "2025-12-10T11:33:53.769351+00:00", "meta": {"OBJECT_NAME": "IRIDIUM 33 DEB", "OBJECT_ID": "1997-051GD", "EPOCH": "2025-12-09T15:14:24.291168", "MEAN_MOTION": 15.28228201, "ECCENTRICITY": 0.0014113, "INCLINATION": 86.3246, "RA_OF_ASC_NODE": 307.3494, "ARG_OF_PERICENTER": 56.5071, "MEAN_ANOMALY": 303.7522, "EPHEMERIS_TYPE": 0, "CLASSIFICATION_TYPE": "U", "NORAD_CAT_ID": 34488, "ELEMENT_SET_NO": 999, "REV_AT_EPOCH": 89192, "BSTAR": 0.0059279, "MEAN_MOTION_DOT": 0.00166796, "MEAN_MOTION_DDOT": 0}, "tle": {"line1": "1 34488U 97051GD  25343.63500337  .00166796  00000+0  59279-2 0  9991", "line2": "2 34488  86.3246 307.3494 0014113  56.5071 303.7522 15.28228201891924"}}, "geometry": {"type": "Point", "coordinates": [-54.67804416744885, -23.59267611133648]}}, {"type": "Feature", "properties": {"norad_id": 34492, "name": "IRIDIUM 33 DEB", "group": "iridium-33-debris", "lat": -35.8674960728589, "lon": 158.09687407769732, "alt_km": 693.955819209862, "timestamp": "2025-12-10T11:33:53.769361+00:00", "meta": {"OBJECT_NAME": "IRIDIUM 33 DEB", "OBJECT_ID": "1997-051GH", "EPOCH": "2025-12-09T22:53:18.084192", "MEAN_MOTION": 14.25612959, "ECCENTRICITY": 0.0189305, "INCLINATION": 86.4737, "RA_OF_ASC_NODE": 335.7548, "ARG_OF_PERICENTER": 247.2306, "MEAN_ANOMALY": 140.5705, "EPHEMERIS_TYPE": 0, "CLASSIFICATION_TYPE": "U", "NORAD_CAT_ID": 34492, "ELEMENT_SET_NO": 999, "REV_AT_EPOCH": 85019, "BSTAR": 0.0073091, "MEAN_MOTION_DOT": 0.00020944, "MEAN_MOTION_DDOT": 0}, "tle": {"line1": "1 34492U 97051GH  25343.95368153  .00020944  00000+0  73091-2 0  9991", "line2": "2 34492  86.4737 335.7548 0189305 247.2306 140.5705 14.25612959850193"}}, "geometry": {"type": "Point", "coordinates": [158.09687407769732, -35.8674960728589]}}, {"type": "Feature", "properties": {"norad_id": 34497, "name": "IRIDIUM 33 DEB", "group": "iridium-33-debris", "lat": 80.99550301149772, "lon": 77.62081149091497, "alt_km": 797.3143946834834, "timestamp": "2025-12-10T11:33:53.769372+00:00", "meta": {"OBJECT_NAME": "IRIDIUM 33 DEB", "OBJECT_ID": "1997-051GN", "EPOCH": "2025-12-10T04:35:23.085888", "MEAN_MOTION": 14.2744131, "ECCENTRICITY": 0.0079065, "INCLINATION": 86.2779, "RA_OF_ASC_NODE": 53.4903, "ARG_OF_PERICENTER": 347.8917, "MEAN_ANOMALY": 40.4515, "EPHEMERIS_TYPE": 0, "CLASSIFICATION_TYPE": "U", "NORAD_CAT_ID": 34497, "ELEMENT_SET_NO": 999, "REV_AT_EPOCH": 86847, "BSTAR": 0.00082191, "MEAN_MOTION_DOT": 2.102e-05, "MEAN_MOTION_DDOT": 0}, "tle": {"line1": "1 34497U 97051GN  25344.19123942  .00002102  00000+0  82191-3 0  9996", "line2": "2 34497  86.2779  53.4903 0079065 347.8917  40.4515 14.27441310868477"}}, "geometry": {"type": "Point", "coordinates": [77.62081149091497, 80.99550301149772]}}, {"type": "Feature", "properties": {"norad_id": 34508, "name": "IRIDIUM 33 DEB", "group": "iridium-33-debris", "lat": 30.24638274775216, "lon": -78.52086564713156, "alt_km": 721.6961715461766, "timestamp": "2025-12-10T11:33:53.769382+00:00", "meta": {"OBJECT_NAME": "IRIDIUM 33 DEB", "OBJECT_ID": "1997-051GZ", "EPOCH": "2025-12-09T08:09:22.353120", "MEAN_MOTION": 14.38378471, "ECCENTRICITY": 0.00659121, "INCLINATION": 86.3702, "RA_OF_ASC_NODE": 104.0845, "ARG_OF_PERICENTER": 183.8965, "MEAN_ANOMALY": 176.1729, "EPHEMERIS_TYPE": 0, "CLASSIFICATION_TYPE": "U", "NORAD_CAT_ID": 34508, "ELEMENT_SET_NO": 999, "REV_AT_EPOCH": 87260, "BSTAR": 0.0023049573, "MEAN_MOTION_DOT": 7.224e-05, "MEAN_MOTION_DDOT": 0}, "tle": {"line1": "1 34508U 97051GZ  25343.33984205  .00007224  00000+0  23050-2 0  9999", "line2": "2 34508  86.3702 104.0845 0065912 183.8965 176.1729 14.38378471872605"}}, "geometry": {"type": "Point", "coordinates": [-78.52086564713156, 30.24638274775216]}}, {"type": "Feature", "properties": {"norad_id": 34521, "name": "IRIDIUM 33 DEB", "group": "iridium-33-debris", "lat": 54.46951448131201, "lon": -153.54427264907073, "alt_km": 677.6397761773178, "timestamp": "2025-12-10T11:33:53.769393+00:00", "meta": {"OBJECT_NAME": "IRIDIUM 33 DEB", "OBJECT_ID": "1997-051HN", "EPOCH": "2025-12-10T04:25:46.194816", "MEAN_MOTION": 14.63330037, "ECCENTRICITY": 0.0001302, "INCLINATION": 86.38, "RA_OF_ASC_NODE": 31.6727, "ARG_OF_PERICENTER": 233.2821, "MEAN_ANOMALY": 126.8271, "EPHEMERIS_TYPE": 0, "CLASSIFICATION_TYPE": "U", "NORAD_CAT_ID": 34521, "ELEMENT_SET_NO": 999, "REV_AT_EPOCH": 88435, "BSTAR": 0.0012474, "MEAN_MOTION_DOT": 6.461e-05, "MEAN_MOTION_DDOT": 0}, "tle": {"line1": "1 34521U 97051HN  25344.18456244  .00006461  00000+0  12474-2 0  9995", "line2": "2 34521  86.3800  31.6727 0001302 233.2821 126.8271 14.63330037884350"}}, "geometry": {"type": "Point", "coordinates": [-153.54427264907073, 54.46951448131201]}}, {"type": "Feature", "properties": {"norad_id": 34525, "name": "IRIDIUM 33 DEB", "group": "iridium-33-debris", "lat": 69.31127547818893, "lon": -141.8627347587516, "alt_km": 737.6011450350506, "timestamp": "2025-12-10T11:33:53.769403+00:00", "meta": {"OBJECT_NAME": "IRIDIUM 33 DEB", "OBJECT_ID": "1997-051HS", "EPOCH": "2025-12-10T04:38:50.000928", "MEAN_MOTION": 14.4289587, "ECCENTRICITY": 0.0006705, "INCLINATION": 86.3727, "RA_OF_ASC_NODE": 47.9303, "ARG_OF_PERICENTER": 101.2221, "MEAN_ANOMALY": 312.8304, "EPHEMERIS_TYPE": 0, "CLASSIFICATION_TYPE": "U", "NORAD_CAT_ID": 34525, "ELEMENT_SET_NO": 999, "REV_AT_EPOCH": 88051, "BSTAR": 0.0005256, "MEAN_MOTION_DOT": 1.775e-05, "MEAN_MOTION_DDOT": 0}, "tle": {"line1": "1 34525U 97051HS  25344.19363427  .00001775  00000+0  52560-3 0  9994", "line2": "2 34525  86.3727  47.9303 0006705 101.2221 312.8304 14.42895870880518"}}, "geometry": {"type": "Point", "coordinates": [-141.8627347587516, 69.31127547818893]}}]}